[{"OBJECT_NAME":"CAS-2T & KS-1Q","OBJECT_ID":"2016-066G","EPOCH":"2026-03-29T04:06:11.992896","MEAN_MOTION":14.44521513,"ECCENTRICITY":0.0342605,"INCLINATION":98.3857,"RA_OF_ASC_NODE":164.8051,"ARG_OF_PERICENTER":12.5347,"MEAN_ANOMALY":348.4101,"EPHEMERIS_TYPE":0,"CLASSIFICATION_TYPE":"U","NORAD_CAT_ID":41847,"ELEMENT_SET_NO":999,"REV_AT_EPOCH":49324,"BSTAR":0.00018172,"MEAN_MOTION_DOT":1.233e-5,"MEAN_MOTION_DDOT":0},{"OBJECT_NAME":"YUNHAI-1 01","OBJECT_ID":"2016-068A","EPOCH":"2026-03-29T03:09:41.842656","MEAN_MOTION":14.32682273,"ECCENTRICITY":0.0004081,"INCLINATION":98.5887,"RA_OF_ASC_NODE":99.8705,"ARG_OF_PERICENTER":272.1166,"MEAN_ANOMALY":87.955,"EPHEMERIS_TYPE":0,"CLASSIFICATION_TYPE":"U","NORAD_CAT_ID":41857,"ELEMENT_SET_NO":999,"REV_AT_EPOCH":49036,"BSTAR":0.00015432,"MEAN_MOTION_DOT":3.76e-6,"MEAN_MOTION_DDOT":0},{"OBJECT_NAME":"RESOURCESAT-2A","OBJECT_ID":"2016-074A","EPOCH":"2026-03-29T04:28:54.835392","MEAN_MOTION":14.21607864,"ECCENTRICITY":0.0001435,"INCLINATION":98.757,"RA_OF_ASC_NODE":162.3312,"ARG_OF_PERICENTER":340.8461,"MEAN_ANOMALY":19.2662,"EPHEMERIS_TYPE":0,"CLASSIFICATION_TYPE":"U","NORAD_CAT_ID":41877,"ELEMENT_SET_NO":999,"REV_AT_EPOCH":48293,"BSTAR":7.9176e-5,"MEAN_MOTION_DOT":1.29e-6,"MEAN_MOTION_DDOT":0},{"OBJECT_NAME":"TANSAT","OBJECT_ID":"2016-081A","EPOCH":"2026-03-29T04:43:33.912192","MEAN_MOTION":14.59884935,"ECCENTRICITY":0.0020027,"INCLINATION":98.5372,"RA_OF_ASC_NODE":86.0975,"ARG_OF_PERICENTER":193.11,"MEAN_ANOMALY":166.9581,"EPHEMERIS_TYPE":0,"CLASSIFICATION_TYPE":"U","NORAD_CAT_ID":41898,"ELEMENT_SET_NO":999,"REV_AT_EPOCH":49295,"BSTAR":0.00012162,"MEAN_MOTION_DOT":5.33e-6,"MEAN_MOTION_DDOT":0},{"OBJECT_NAME":"JILIN-1 03","OBJECT_ID":"2017-002B","EPOCH":"2026-03-29T04:46:43.898880","MEAN_MOTION":15.39550875,"ECCENTRICITY":0.0008298,"INCLINATION":97.1987,"RA_OF_ASC_NODE":96.5164,"ARG_OF_PERICENTER":99.8436,"MEAN_ANOMALY":260.3748,"EPHEMERIS_TYPE":0,"CLASSIFICATION_TYPE":"U","NORAD_CAT_ID":41914,"ELEMENT_SET_NO":999,"REV_AT_EPOCH":50954,"BSTAR":0.0004968,"MEAN_MOTION_DOT":0.00019498,"MEAN_MOTION_DDOT":0},{"OBJECT_NAME":"CARTOSAT-2D","OBJECT_ID":"2017-008A","EPOCH":"2026-03-27T16:27:35.970336","MEAN_MOTION":15.19256667,"ECCENTRICITY":0.0005431,"INCLINATION":97.4195,"RA_OF_ASC_NODE":147.4754,"ARG_OF_PERICENTER":156.1008,"MEAN_ANOMALY":204.048,"EPHEMERIS_TYPE":0,"CLASSIFICATION_TYPE":"U","NORAD_CAT_ID":41948,"ELEMENT_SET_NO":999,"REV_AT_EPOCH":50520,"BSTAR":2.7408022e-5,"MEAN_MOTION_DOT":5.1e-6,"MEAN_MOTION_DDOT":0},{"OBJECT_NAME":"CARTOSAT-2E","OBJECT_ID":"2017-036C","EPOCH":"2026-03-27T16:52:06.735072","MEAN_MOTION":15.19224706,"ECCENTRICITY":0.00025945,"INCLINATION":97.4362,"RA_OF_ASC_NODE":147.8107,"ARG_OF_PERICENTER":217.4798,"MEAN_ANOMALY":142.6256,"EPHEMERIS_TYPE":0,"CLASSIFICATION_TYPE":"U","NORAD_CAT_ID":42767,"ELEMENT_SET_NO":999,"REV_AT_EPOCH":48577,"BSTAR":-4.95983e-7,"MEAN_MOTION_DOT":-7.8e-7,"MEAN_MOTION_DDOT":0},{"OBJECT_NAME":"D-SAT","OBJECT_ID":"2017-036AF","EPOCH":"2026-03-28T20:44:29.147136","MEAN_MOTION":15.15858607,"ECCENTRICITY":0.00856327,"INCLINATION":97.5503,"RA_OF_ASC_NODE":67.0871,"ARG_OF_PERICENTER":80.286,"MEAN_ANOMALY":280.8032,"EPHEMERIS_TYPE":0,"CLASSIFICATION_TYPE":"U","NORAD_CAT_ID":42794,"ELEMENT_SET_NO":999,"REV_AT_EPOCH":47868,"BSTAR":0.0005180574,"MEAN_MOTION_DOT":0.00010817,"MEAN_MOTION_DDOT":0},{"OBJECT_NAME":"IRIDIUM 113","OBJECT_ID":"2017-039A","EPOCH":"2026-03-29T05:10:52.201344","MEAN_MOTION":14.34222142,"ECCENTRICITY":0.0001971,"INCLINATION":86.4033,"RA_OF_ASC_NODE":355.6015,"ARG_OF_PERICENTER":78.3294,"MEAN_ANOMALY":281.8123,"EPHEMERIS_TYPE":0,"CLASSIFICATION_TYPE":"U","NORAD_CAT_ID":42803,"ELEMENT_SET_NO":999,"REV_AT_EPOCH":45972,"BSTAR":0.0001018,"MEAN_MOTION_DOT":3.05e-6,"MEAN_MOTION_DDOT":0},{"OBJECT_NAME":"NORSAT 2","OBJECT_ID":"2017-042D","EPOCH":"2026-03-29T00:48:47.513664","MEAN_MOTION":15.20192436,"ECCENTRICITY":0.0009174,"INCLINATION":97.3993,"RA_OF_ASC_NODE":262.8619,"ARG_OF_PERICENTER":337.4982,"MEAN_ANOMALY":22.5849,"EPHEMERIS_TYPE":0,"CLASSIFICATION_TYPE":"U","NORAD_CAT_ID":42828,"ELEMENT_SET_NO":999,"REV_AT_EPOCH":47555,"BSTAR":0.00068415,"MEAN_MOTION_DOT":0.00014784,"MEAN_MOTION_DDOT":0},{"OBJECT_NAME":"TECHNOSAT","OBJECT_ID":"2017-042E","EPOCH":"2026-03-28T23:36:32.153472","MEAN_MOTION":15.04440964,"ECCENTRICITY":0.0017896,"INCLINATION":97.4186,"RA_OF_ASC_NODE":248.7638,"ARG_OF_PERICENTER":12.3109,"MEAN_ANOMALY":347.8551,"EPHEMERIS_TYPE":0,"CLASSIFICATION_TYPE":"U","NORAD_CAT_ID":42829,"ELEMENT_SET_NO":999,"REV_AT_EPOCH":47464,"BSTAR":0.00033255,"MEAN_MOTION_DOT":4.606e-5,"MEAN_MOTION_DDOT":0},{"OBJECT_NAME":"FLYING LAPTOP","OBJECT_ID":"2017-042G","EPOCH":"2026-03-29T04:23:03.560640","MEAN_MOTION":15.00641606,"ECCENTRICITY":0.0020032,"INCLINATION":97.4331,"RA_OF_ASC_NODE":246.9977,"ARG_OF_PERICENTER":35.1632,"MEAN_ANOMALY":325.091,"EPHEMERIS_TYPE":0,"CLASSIFICATION_TYPE":"U","NORAD_CAT_ID":42831,"ELEMENT_SET_NO":999,"REV_AT_EPOCH":47445,"BSTAR":0.00019964,"MEAN_MOTION_DOT":2.478e-5,"MEAN_MOTION_DDOT":0},{"OBJECT_NAME":"WNISAT 1R","OBJECT_ID":"2017-042L","EPOCH":"2026-03-28T23:47:52.282176","MEAN_MOTION":15.01307278,"ECCENTRICITY":0.0013537,"INCLINATION":97.4603,"RA_OF_ASC_NODE":247.0758,"ARG_OF_PERICENTER":71.4199,"MEAN_ANOMALY":288.8495,"EPHEMERIS_TYPE":0,"CLASSIFICATION_TYPE":"U","NORAD_CAT_ID":42835,"ELEMENT_SET_NO":999,"REV_AT_EPOCH":47447,"BSTAR":0.00033523,"MEAN_MOTION_DOT":4.265e-5,"MEAN_MOTION_DDOT":0},{"OBJECT_NAME":"LEMUR-2-GREENBERG","OBJECT_ID":"2017-042N","EPOCH":"2026-03-29T00:55:01.586784","MEAN_MOTION":15.28713065,"ECCENTRICITY":0.0008077,"INCLINATION":97.3793,"RA_OF_ASC_NODE":269.1944,"ARG_OF_PERICENTER":289.6224,"MEAN_ANOMALY":70.4144,"EPHEMERIS_TYPE":0,"CLASSIFICATION_TYPE":"U","NORAD_CAT_ID":42837,"ELEMENT_SET_NO":999,"REV_AT_EPOCH":47613,"BSTAR":0.00075609,"MEAN_MOTION_DOT":0.00021088,"MEAN_MOTION_DDOT":0},{"OBJECT_NAME":"LEMUR-2-FURIAUS","OBJECT_ID":"2017-042R","EPOCH":"2026-03-28T23:14:33.247968","MEAN_MOTION":15.27189754,"ECCENTRICITY":0.0006799,"INCLINATION":97.3756,"RA_OF_ASC_NODE":267.274,"ARG_OF_PERICENTER":348.6881,"MEAN_ANOMALY":11.4204,"EPHEMERIS_TYPE":0,"CLASSIFICATION_TYPE":"U","NORAD_CAT_ID":42840,"ELEMENT_SET_NO":999,"REV_AT_EPOCH":47595,"BSTAR":0.0010018,"MEAN_MOTION_DOT":0.00026712,"MEAN_MOTION_DDOT":0},{"OBJECT_NAME":"CORVUS BC2","OBJECT_ID":"2017-042X","EPOCH":"2026-03-29T04:47:06.609984","MEAN_MOTION":15.0575991,"ECCENTRICITY":0.0013648,"INCLINATION":97.3976,"RA_OF_ASC_NODE":252.7246,"ARG_OF_PERICENTER":31.1066,"MEAN_ANOMALY":329.0966,"EPHEMERIS_TYPE":0,"CLASSIFICATION_TYPE":"U","NORAD_CAT_ID":42846,"ELEMENT_SET_NO":999,"REV_AT_EPOCH":47502,"BSTAR":0.00041316,"MEAN_MOTION_DOT":5.937e-5,"MEAN_MOTION_DDOT":0},{"OBJECT_NAME":"CORVUS BC1","OBJECT_ID":"2017-042Y","EPOCH":"2026-03-29T04:52:39.277632","MEAN_MOTION":15.05957284,"ECCENTRICITY":0.0012041,"INCLINATION":97.4007,"RA_OF_ASC_NODE":253.4886,"ARG_OF_PERICENTER":8.8167,"MEAN_ANOMALY":351.3269,"EPHEMERIS_TYPE":0,"CLASSIFICATION_TYPE":"U","NORAD_CAT_ID":42847,"ELEMENT_SET_NO":999,"REV_AT_EPOCH":47505,"BSTAR":0.00036449,"MEAN_MOTION_DOT":5.256e-5,"MEAN_MOTION_DDOT":0},{"OBJECT_NAME":"VRSS-2","OBJECT_ID":"2017-060A","EPOCH":"2026-03-29T04:46:31.008000","MEAN_MOTION":14.81058595,"ECCENTRICITY":0.0017252,"INCLINATION":97.6621,"RA_OF_ASC_NODE":129.4982,"ARG_OF_PERICENTER":6.8513,"MEAN_ANOMALY":353.2933,"EPHEMERIS_TYPE":0,"CLASSIFICATION_TYPE":"U","NORAD_CAT_ID":42954,"ELEMENT_SET_NO":999,"REV_AT_EPOCH":45661,"BSTAR":0.00015174,"MEAN_MOTION_DOT":1.13e-5,"MEAN_MOTION_DDOT":0},{"OBJECT_NAME":"MOHAMMED VI-A","OBJECT_ID":"2017-070A","EPOCH":"2026-03-29T04:58:53.569344","MEAN_MOTION":14.77074542,"ECCENTRICITY":0.0001262,"INCLINATION":97.9401,"RA_OF_ASC_NODE":161.6474,"ARG_OF_PERICENTER":74.0308,"MEAN_ANOMALY":286.1041,"EPHEMERIS_TYPE":0,"CLASSIFICATION_TYPE":"U","NORAD_CAT_ID":43005,"ELEMENT_SET_NO":999,"REV_AT_EPOCH":45217,"BSTAR":4.6616e-5,"MEAN_MOTION_DOT":2.79e-6,"MEAN_MOTION_DDOT":0},{"OBJECT_NAME":"FENGYUN 3D","OBJECT_ID":"2017-072A","EPOCH":"2026-03-29T03:47:28.196736","MEAN_MOTION":14.19720989,"ECCENTRICITY":5.89e-5,"INCLINATION":99.0059,"RA_OF_ASC_NODE":61.1644,"ARG_OF_PERICENTER":315.3638,"MEAN_ANOMALY":44.7489,"EPHEMERIS_TYPE":0,"CLASSIFICATION_TYPE":"U","NORAD_CAT_ID":43010,"ELEMENT_SET_NO":999,"REV_AT_EPOCH":43363,"BSTAR":7.3369e-5,"MEAN_MOTION_DOT":1.09e-6,"MEAN_MOTION_DDOT":0},{"OBJECT_NAME":"CZ-4C R/B","OBJECT_ID":"2017-072C","EPOCH":"2026-03-29T04:47:28.607424","MEAN_MOTION":14.58716035,"ECCENTRICITY":0.0123204,"INCLINATION":98.5709,"RA_OF_ASC_NODE":193.6176,"ARG_OF_PERICENTER":38.7547,"MEAN_ANOMALY":322.241,"EPHEMERIS_TYPE":0,"CLASSIFICATION_TYPE":"U","NORAD_CAT_ID":43012,"ELEMENT_SET_NO":999,"REV_AT_EPOCH":44497,"BSTAR":0.00010713,"MEAN_MOTION_DOT":4.99e-6,"MEAN_MOTION_DDOT":0},{"OBJECT_NAME":"NOAA 20 (JPSS-1)","OBJECT_ID":"2017-073A","EPOCH":"2026-03-29T03:23:28.431456","MEAN_MOTION":14.19541157,"ECCENTRICITY":0.0001899,"INCLINATION":98.7714,"RA_OF_ASC_NODE":28.3377,"ARG_OF_PERICENTER":111.4734,"MEAN_ANOMALY":248.6645,"EPHEMERIS_TYPE":0,"CLASSIFICATION_TYPE":"U","NORAD_CAT_ID":43013,"ELEMENT_SET_NO":999,"REV_AT_EPOCH":43311,"BSTAR":6.908e-5,"MEAN_MOTION_DOT":1.02e-6,"MEAN_MOTION_DDOT":0},{"OBJECT_NAME":"MAKERSAT 0","OBJECT_ID":"2017-073D","EPOCH":"2026-03-29T03:34:41.621376","MEAN_MOTION":15.28660568,"ECCENTRICITY":0.0114547,"INCLINATION":97.4757,"RA_OF_ASC_NODE":330.2014,"ARG_OF_PERICENTER":196.2216,"MEAN_ANOMALY":163.5346,"EPHEMERIS_TYPE":0,"CLASSIFICATION_TYPE":"U","NORAD_CAT_ID":43016,"ELEMENT_SET_NO":999,"REV_AT_EPOCH":45422,"BSTAR":0.00083345,"MEAN_MOTION_DOT":0.00028308,"MEAN_MOTION_DDOT":0},{"OBJECT_NAME":"RADFXSAT (FOX-1B)","OBJECT_ID":"2017-073E","EPOCH":"2026-03-29T01:31:52.586976","MEAN_MOTION":15.11259519,"ECCENTRICITY":0.0153117,"INCLINATION":97.483,"RA_OF_ASC_NODE":316.9538,"ARG_OF_PERICENTER":244.7829,"MEAN_ANOMALY":113.7462,"EPHEMERIS_TYPE":0,"CLASSIFICATION_TYPE":"U","NORAD_CAT_ID":43017,"ELEMENT_SET_NO":999,"REV_AT_EPOCH":45328,"BSTAR":0.00045237,"MEAN_MOTION_DOT":0.00010034,"MEAN_MOTION_DDOT":0}]
